GALAXY 11 (G-11)        
1 26038U 99071A   24357.88174350 -.00000031  00000+0  00000+0 0  9995
2 26038   5.3641  77.0767 0003481 254.5552 100.4763  0.99036831 91648
INTELSAT 9 (IS-9)       
1 26451U 00043A   24357.75571993 -.00000001  00000+0  00000+0 0  9992
2 26451   9.1982  54.0599 0003188 214.0305 161.9871  1.00273149 89429
INTELSAT 1R (IS-1R)     
1 26608U 00072A   24357.48868991 -.00000129  00000+0  00000+0 0  9996
2 26608   6.7229  70.6836 0008678 221.5745 159.1326  0.98975421 35870
INTELSAT 10 (IS-10)     
1 26766U 01019A   24357.75571993  .00000006  00000+0  00000+0 0  9999
2 26766   7.7774  64.7798 0004336 212.1987 152.9560  1.00272367 40198
INTELSAT 901 (IS-901)   
1 26824U 01024A   24358.09444535 -.00000183  00000+0  00000+0 0  9996
2 26824   0.0262  80.3059 0001617 239.8478 138.4802  1.00272596 86164
INTELSAT 902 (IS-902)   
1 26900U 01039A   24357.16092362 -.00000269  00000+0  00000+0 0  9996
2 26900   4.7415  78.3927 0005055 196.2266 184.4379  1.00272254 85263
INTELSAT 904 (IS-904)   
1 27380U 02007A   24357.45084418 -.00000200  00000+0  00000+0 0  9995
2 27380   5.5580  75.6525 0002945 200.2928 308.3442  1.00271497 46339
DIRECTV 5 (TEMPO 1)     
1 27426U 02023A   24357.64929122 -.00000040  00000+0  00000+0 0  9997
2 27426   3.4883  82.1010 0003370 198.5888 294.6273  1.00272351 82690
INTELSAT 905 (IS-905)   
1 27438U 02027A   24358.09505351 -.00000169  00000+0  00000+0 0  9990
2 27438   5.3861  76.2844 0002693 199.9626 185.6112  1.00272556 82543
GALAXY 3C (G-3C)        
1 27445U 02030A   24358.08106574 -.00000134  00000+0  00000+0 0  9997
2 27445   2.3462  84.9195 0002649  67.0194 234.4948  1.00271756 82525
INTELSAT 906 (IS-906)   
1 27513U 02041A   24357.84493792  .00000030  00000+0  00000+0 0  9993
2 27513   4.4210  79.5999 0006577 184.8407 195.7364  1.00271293 81601
GALAXY 23 (G-23)        
1 27854U 03034A   24357.64711920  .00000029  00000+0  00000+0 0  9996
2 27854   1.7947  86.5537 0002673 187.3175 289.8926  1.00272064 78315
GALAXY 13 (HORIZONS-1)  
1 27954U 03044A   24356.56924624  .00000146  00000+0  00000+0 0  9995
2 27954   0.0257  84.2884 0000152 264.7972 156.4369  1.00270356 77712
INTELSAT 10-02          
1 28358U 04022A   24357.38507557  .00000005  00000+0  00000+0 0  9998
2 28358   0.0180  32.6913 0000899 272.7657 283.6390  1.00270298 75128
XM-3 (RHYTHM)           
1 28626U 05008A   24356.93953419 -.00000190  00000+0  00000+0 0  9999
2 28626   0.0098 349.8950 0004250 235.1782 118.9873  1.00267200 37184
DIRECTV 8               
1 28659U 05019A   24358.15604841  .00000020  00000+0  00000+0 0  9996
2 28659   0.0183  13.7737 0002990 265.3196 110.2243  1.00272364 71763
GALAXY 28 (G-28)        
1 28702U 05022A   24357.65346149 -.00000168  00000+0  00000+0 0  9991
2 28702   1.8996  85.6968 0006902 188.0695 324.1532  1.00272493 46558
GALAXY 14 (G-14)        
1 28790U 05030A   24357.24789111 -.00000013  00000+0  00000+0 0  9991
2 28790   3.6231  81.5203 0001204 178.2312 309.0512  0.98944170 70866
SPACEWAY 2              
1 28903U 05046B   24357.83782311 -.00000032  00000+0  00000+0 0  9995
2 28903   4.0812  77.9667 0002129  80.7940 329.7630  0.99060474 70065
GALAXY 16 (G-16)        
1 29236U 06023A   24357.34283615 -.00000110  00000+0  00000+0 0  9997
2 29236   0.0346 147.1079 0002709 128.6978 199.9902  1.00272114 67544
DIRECTV 9S              
1 29494U 06043A   24358.07984942 -.00000094  00000+0  00000+0 0  9998
2 29494   1.0205  87.5201 0003058 189.1578 102.9726  1.00271789 66684
GALAXY 17 (G-17)        
1 31307U 07016B   24358.08306399 -.00000187  00000+0  00000+0 0  9993
2 31307   1.5973  86.8698 0007352 204.0226 106.1142  1.00270672 64650
DIRECTV 10              
1 31862U 07032A   24358.07950191 -.00000084  00000+0  00000+0 0  9997
2 31862   0.0418 167.1343 0000390  68.4113 142.3881  1.00273435 63983
INTELSAT 11 (IS-11)     
1 32253U 07044B   24357.80555986 -.00000251  00000+0  00000+0 0  9994
2 32253   2.1538  85.4109 0004353 201.6237  51.7989  1.00271309 63066
HORIZONS-2              
1 32388U 07063B   24358.08523601 -.00000235  00000+0  00000+0 0  9996
2 32388   1.2022  87.3936 0001956 185.8972 135.7275  1.00272114 62455
DIRECTV 11              
1 32729U 08013A   24357.22260885 -.00000109  00000+0  00000+0 0  9998
2 32729   0.0044  93.3935 0000281 201.8359 136.9873  1.00267782 40154
GALAXY 18 (G-18)        
1 32951U 08024A   24358.07550539  .00000044  00000+0  00000+0 0  9996
2 32951   0.0181 293.1331 0003020 337.5751  85.5683  1.00272778 60667
INTELSAT 25 (IS-25)     
1 33153U 08034A   24358.09366341 -.00000205  00000+0  00000+0 0  9990
2 33153   1.3092  87.0650 0003433 200.8822 166.3854  1.00270112 60219
GALAXY 19 (G-19)        
1 33376U 08045A   24357.29454597 -.00000123  00000+0  00000+0 0  9990
2 33376   0.0182   7.6363 0002890 274.5406 178.1976  1.00272014 59478
FM-5                    
1 35493U 09034A   24357.29671799 -.00000184  00000+0  00000+0 0  9993
2 35493   0.0145 319.7050 0001396 207.8731 304.4367  1.00272160 41212
INTELSAT 14 (IS-14)     
1 36097U 09064A   24358.09097012 -.00000254  00000+0  00000+0 0  9994
2 36097   0.0072 357.5598 0002435 275.9056 166.4145  1.00271139 55276
INTELSAT 15 (IS-15)     
1 36106U 09067A   24357.85257782 -.00000167  00000+0  00000+0 0  9996
2 36106   0.0218 291.6947 0002270 352.8568 199.4113  1.00268644 35800
DIRECTV 12              
1 36131U 09075A   24358.19064619 -.00000084  00000+0  00000+0 0  9994
2 36131   0.0272 142.9902 0000598 192.4750  82.6631  1.00272030 54969
INTELSAT 16 (IS-16)     
1 36397U 10006A   24357.22721351 -.00000229  00000+0  00000+0 0  9991
2 36397   0.0118  31.5300 0002169 233.1393 192.1970  1.00270813 54228
XM-5                    
1 37185U 10053A   24357.29089698 -.00000007  00000+0  00000+0 0  9991
2 37185   0.0182   7.8230 0000699 158.4172 274.6282  1.00271834 52047
INTELSAT 17 (IS-17)     
1 37238U 10065B   24358.13590969  .00000018  00000+0  00000+0 0  9996
2 37238   0.0215  51.3649 0002510 240.1443 275.5700  1.00272869 51497
INTELSAT 28 (IS-28)     
1 37392U 11016A   24358.10443661  .00000138  00000+0  00000+0 0  9990
2 37392   0.4040  90.0932 0004341 178.8672 243.5450  1.00129647 50095
INTELSAT 18 (IS-18)     
1 37834U 11056A   24358.18521352  .00000072  00000+0  00000+0 0  9994
2 37834   0.0198 343.0817 0001403 274.1838  81.6236  1.00271791 48413
INTELSAT 22 (IS-22)     
1 38098U 12011A   24357.90778502 -.00000040  00000+0  00000+0 0  9995
2 38098   0.0180  52.4173 0001907 223.3305 215.0998  1.00271466  1761
INTELSAT 19 (IS-19)     
1 38356U 12030A   24357.60267411 -.00000039  00000+0  00000+0 0  9990
2 38356   0.0118 333.8816 0003027 299.7676 200.9561  1.00271792 45019
INTELSAT 20 (IS-20)     
1 38740U 12043A   24357.44910260 -.00000008  00000+0  00000+0 0  9996
2 38740   0.0140  69.9165 0002829 111.5372 140.2207  1.00270099 45313
INTELSAT 21 (IS-21)     
1 38749U 12045A   24357.40882870 -.00000268  00000+0  00000+0 0  9996
2 38749   0.0158  58.2926 0002201 210.3220 272.0016  1.00269601 45095
INTELSAT 23 (IS-23)     
1 38867U 12057A   24357.16031546 -.00000269  00000+0  00000+0 0  9990
2 38867   0.0416 186.0739 0000659 225.0696  44.8003  1.00272479 44514
FM-6                    
1 39360U 13058A   24357.36993797 -.00000001  00000+0  00000+0 0  9992
2 39360   0.0025   1.4686 0000452 193.0946 273.8726  1.00272238 40912
INTELSAT 30 (IS-30)     
1 40271U 14062A   24357.05034800 -.00000136  00000+0  00000+0 0  9997
2 40271   0.0126  24.3465 0001186 350.4969 359.3363  1.00272005  1348
DIRECTV 14              
1 40333U 14078B   24357.61676583 -.00000108  00000+0  00000+0 0  9994
2 40333   0.0137 331.6066 0000144 191.9786  50.8720  1.00270442 36631
DIRECTV 15              
1 40663U 15026A   24357.61397503 -.00000085  00000+0  00000+0 0  9990
2 40663   0.0169  32.1914 0000640 149.2416  28.3906  1.00273066 35038
SKY MEXICO-1            
1 40664U 15026B   24357.79843566 -.00000216  00000+0  00000+0 0  9991
2 40664   0.0279  36.0843 0002560 250.2683  14.1562  1.00271861 35028
INTELSAT 34 (IS-34)     
1 40874U 15039A   24357.40882870 -.00000269  00000+0  00000+0 0  9995
2 40874   0.0178   3.7898 0000351 174.4245   4.9142  1.00271336 34192
INTELSAT 31 (IS-31)     
1 41581U 16035A   24356.34468169 -.00000139  00000+0  00000+0 0  9997
2 41581   0.0168  85.1016 0002137  98.8490 295.4625  1.00277359 31245
INTELSAT 36 (IS-36)     
1 41747U 16053A   24357.01368994 -.00000010  00000+0  00000+0 0  9999
2 41747   0.0106   4.2121 0001279 339.3103 180.9782  1.00272882 30517
INTELSAT 32E (IS-32E)   
1 41945U 17007B   24357.66241019 -.00000251  00000+0  00000+0 0  9995
2 41945   0.0155  38.5749 0000622 117.2717 131.1415  1.00270958 28792
INTELSAT 35E (IS-35E)   
1 42818U 17041A   24357.16396444 -.00000222  00000+0  00000+0 0  9999
2 42818   0.0156  66.2542 0002391 213.6127 195.8758  1.00273048 27387
INTELSAT 37E (IS-37E)   
1 42950U 17059A   24358.09635671 -.00000122  00000+0  00000+0 0  9995
2 42950   0.0205   4.6836 0002705 262.6281 201.5032  1.00268008 26621
AZERSPACE 2 (IS-38)     
1 43632U 18074A   24358.20743672  .00000156  00000+0  00000+0 0  9991
2 43632   0.0090 332.1339 0001907 334.4930 265.3979  1.00270728 23010
HORIZONS-3E             
1 43633U 18074B   24357.54702341 -.00000013  00000+0  00000+0 0  9999
2 43633   0.0288 189.2922 0001333  76.8657 191.3492  1.00271635 22896
AT&T T-16               
1 44333U 19034A   24357.61536920 -.00000099  00000+0  00000+0 0  9994
2 44333   0.0187  16.2138 0001154 128.1857  67.9347  1.00274776 20191
INTELSAT 39 (IS-39)     
1 44476U 19049B   24357.96855012  .00000052  00000+0  00000+0 0  9990
2 44476   0.0018  37.4607 0000626 102.7293   2.4370  1.00271376 19699
GALAXY 30 (G-30)        
1 46114U 20056C   24357.67456872  .00000055  00000+0  00000+0 0  9993
2 46114   0.0197   6.3839 0002170 264.1344 299.0189  1.00271817 15863
GALAXY 33 (G-33)        
1 54026U 22128A   24357.38104958  .00000095  00000+0  00000+0 0  9993
2 54026   0.0210  62.7555 0001851 207.8886 184.9512  1.00272380  8311
GALAXY 34 (G-34)        
1 54027U 22128B   24357.38104958  .00000075  00000+0  00000+0 0  9992
2 54027   0.0242  17.5555 0001514 256.4567 185.6510  1.00270628  8484
GALAXY 31 (G-31)        
1 54243U 22153A   24357.28976753  .00000029  00000+0  00000+0 0  9998
2 54243   0.0244  89.6631 0001529 187.2876 157.6948  1.00272192  1699
GALAXY 32 (G-32)        
1 54244U 22153B   24357.42549437 -.00000157  00000+0  00000+0 0  9993
2 54244   0.0092 341.6053 0002017 335.7857 196.2495  1.00271421  7711
GALAXY 35 (G-35)        
1 54741U 22170A   24357.56716175 -.00000145  00000+0  00000+0 0  9991
2 54741   0.0245  84.1968 0002153 188.7917 289.6950  1.00272091  7460
GALAXY 36 (G-36)        
1 54742U 22170B   24357.79626365 -.00000167  00000+0  00000+0 0  9992
2 54742   0.0159  20.2883 0000735  37.7567 231.4399  1.00269550  7480
GALAXY 37 (G-37)        
1 57493U 23112A   24358.22688160  .00000068  00000+0  00000+0 0  9994
2 57493   0.0319  62.7689 0002130 214.9721 129.1922  1.00272549  5093
